[{"OBJECT_NAME":"STARLINK-31389","OBJECT_ID":"2024-036R","EPOCH":"2026-03-09T23:40:19.550496","MEAN_MOTION":15.30138848,"ECCENTRICITY":9.254e-5,"INCLINATION":53.1606,"RA_OF_ASC_NODE":77.1028,"ARG_OF_PERICENTER":118.9412,"MEAN_ANOMALY":241.1682,"EPHEMERIS_TYPE":0,"CLASSIFICATION_TYPE":"U","NORAD_CAT_ID":59013,"ELEMENT_SET_NO":999,"REV_AT_EPOCH":11537,"BSTAR":0.00043832189,"MEAN_MOTION_DOT":0.0001262,"MEAN_MOTION_DDOT":0},{"OBJECT_NAME":"OBJECT D","OBJECT_ID":"2024-173D","EPOCH":"2026-03-09T23:30:29.956896","MEAN_MOTION":15.27005733,"ECCENTRICITY":0.00090093,"INCLINATION":97.3606,"RA_OF_ASC_NODE":149.3901,"ARG_OF_PERICENTER":241.6081,"MEAN_ANOMALY":118.425,"EPHEMERIS_TYPE":0,"CLASSIFICATION_TYPE":"U","NORAD_CAT_ID":61230,"ELEMENT_SET_NO":999,"REV_AT_EPOCH":8130,"BSTAR":0.00072064626,"MEAN_MOTION_DOT":0.00019078,"MEAN_MOTION_DDOT":0}]
